<?xml version="1.0" encoding="UTF-8"?>
<ndm xmlns:xsi="http://www.w3.org/2001/XMLSchema-instance" xsi:noNamespaceSchemaLocation="https://sanaregistry.org/r/ndmxml_unqualified/ndmxml-2.0.0-master-2.0.xsd">
<omm id="CCSDS_OMM_VERS" version="2.0">
<header><CREATION_DATE/><ORIGINATOR/></header><body><segment><metadata><OBJECT_NAME>KUIPER-00016</OBJECT_NAME><OBJECT_ID>2025-088J</OBJECT_ID><CENTER_NAME>EARTH</CENTER_NAME><REF_FRAME>TEME</REF_FRAME><TIME_SYSTEM>UTC</TIME_SYSTEM><MEAN_ELEMENT_THEORY>SGP4</MEAN_ELEMENT_THEORY></metadata><data><meanElements><EPOCH>2025-10-13T00:32:00.207168</EPOCH><MEAN_MOTION>14.79914352</MEAN_MOTION><ECCENTRICITY>.00113167</ECCENTRICITY><INCLINATION>51.9041</INCLINATION><RA_OF_ASC_NODE>44.5763</RA_OF_ASC_NODE><ARG_OF_PERICENTER>296.1480</ARG_OF_PERICENTER><MEAN_ANOMALY>63.8318</MEAN_ANOMALY></meanElements><tleParameters><EPHEMERIS_TYPE>0</EPHEMERIS_TYPE><CLASSIFICATION_TYPE>U</CLASSIFICATION_TYPE><NORAD_CAT_ID>63732</NORAD_CAT_ID><ELEMENT_SET_NO>999</ELEMENT_SET_NO><REV_AT_EPOCH>2546</REV_AT_EPOCH><BSTAR>-.18455909E-3</BSTAR><MEAN_MOTION_DOT>-.1632E-4</MEAN_MOTION_DOT><MEAN_MOTION_DDOT>0</MEAN_MOTION_DDOT></tleParameters></data></segment></body></omm>
<omm id="CCSDS_OMM_VERS" version="2.0">
<header><CREATION_DATE/><ORIGINATOR/></header><body><segment><metadata><OBJECT_NAME>KUIPER-00018</OBJECT_NAME><OBJECT_ID>2025-088K</OBJECT_ID><CENTER_NAME>EARTH</CENTER_NAME><REF_FRAME>TEME</REF_FRAME><TIME_SYSTEM>UTC</TIME_SYSTEM><MEAN_ELEMENT_THEORY>SGP4</MEAN_ELEMENT_THEORY></metadata><data><meanElements><EPOCH>2025-10-12T23:55:33.009312</EPOCH><MEAN_MOTION>14.76996105</MEAN_MOTION><ECCENTRICITY>.00122026</ECCENTRICITY><INCLINATION>51.9017</INCLINATION><RA_OF_ASC_NODE>33.2465</RA_OF_ASC_NODE><ARG_OF_PERICENTER>325.6133</ARG_OF_PERICENTER><MEAN_ANOMALY>34.4038</MEAN_ANOMALY></meanElements><tleParameters><EPHEMERIS_TYPE>0</EPHEMERIS_TYPE><CLASSIFICATION_TYPE>U</CLASSIFICATION_TYPE><NORAD_CAT_ID>63733</NORAD_CAT_ID><ELEMENT_SET_NO>999</ELEMENT_SET_NO><REV_AT_EPOCH>2562</REV_AT_EPOCH><BSTAR>.10086093E-2</BSTAR><MEAN_MOTION_DOT>.6971E-4</MEAN_MOTION_DOT><MEAN_MOTION_DDOT>0</MEAN_MOTION_DDOT></tleParameters></data></segment></body></omm>
<omm id="CCSDS_OMM_VERS" version="2.0">
<header><CREATION_DATE/><ORIGINATOR/></header><body><segment><metadata><OBJECT_NAME>KUIPER-00019</OBJECT_NAME><OBJECT_ID>2025-088L</OBJECT_ID><CENTER_NAME>EARTH</CENTER_NAME><REF_FRAME>TEME</REF_FRAME><TIME_SYSTEM>UTC</TIME_SYSTEM><MEAN_ELEMENT_THEORY>SGP4</MEAN_ELEMENT_THEORY></metadata><data><meanElements><EPOCH>2025-10-12T13:30:41.831424</EPOCH><MEAN_MOTION>14.79379516</MEAN_MOTION><ECCENTRICITY>.00056228</ECCENTRICITY><INCLINATION>51.8995</INCLINATION><RA_OF_ASC_NODE>34.1119</RA_OF_ASC_NODE><ARG_OF_PERICENTER>337.1619</ARG_OF_PERICENTER><MEAN_ANOMALY>22.9092</MEAN_ANOMALY></meanElements><tleParameters><EPHEMERIS_TYPE>0</EPHEMERIS_TYPE><CLASSIFICATION_TYPE>U</CLASSIFICATION_TYPE><NORAD_CAT_ID>63734</NORAD_CAT_ID><ELEMENT_SET_NO>999</ELEMENT_SET_NO><REV_AT_EPOCH>2557</REV_AT_EPOCH><BSTAR>.76660808E-2</BSTAR><MEAN_MOTION_DOT>.57968E-3</MEAN_MOTION_DOT><MEAN_MOTION_DDOT>0</MEAN_MOTION_DDOT></tleParameters></data></segment></body></omm>
<omm id="CCSDS_OMM_VERS" version="2.0">
<header><CREATION_DATE/><ORIGINATOR/></header><body><segment><metadata><OBJECT_NAME>KUIPER-00020</OBJECT_NAME><OBJECT_ID>2025-088M</OBJECT_ID><CENTER_NAME>EARTH</CENTER_NAME><REF_FRAME>TEME</REF_FRAME><TIME_SYSTEM>UTC</TIME_SYSTEM><MEAN_ELEMENT_THEORY>SGP4</MEAN_ELEMENT_THEORY></metadata><data><meanElements><EPOCH>2025-10-13T00:46:01.670592</EPOCH><MEAN_MOTION>14.79871582</MEAN_MOTION><ECCENTRICITY>.00072063</ECCENTRICITY><INCLINATION>51.9009</INCLINATION><RA_OF_ASC_NODE>36.0106</RA_OF_ASC_NODE><ARG_OF_PERICENTER>313.0275</ARG_OF_PERICENTER><MEAN_ANOMALY>47.0083</MEAN_ANOMALY></meanElements><tleParameters><EPHEMERIS_TYPE>0</EPHEMERIS_TYPE><CLASSIFICATION_TYPE>U</CLASSIFICATION_TYPE><NORAD_CAT_ID>63735</NORAD_CAT_ID><ELEMENT_SET_NO>999</ELEMENT_SET_NO><REV_AT_EPOCH>2579</REV_AT_EPOCH><BSTAR>-.79795685E-3</BSTAR><MEAN_MOTION_DOT>-.6294E-4</MEAN_MOTION_DOT><MEAN_MOTION_DDOT>0</MEAN_MOTION_DDOT></tleParameters></data></segment></body></omm>
<omm id="CCSDS_OMM_VERS" version="2.0">
<header><CREATION_DATE/><ORIGINATOR/></header><body><segment><metadata><OBJECT_NAME>KUIPER-00021</OBJECT_NAME><OBJECT_ID>2025-088N</OBJECT_ID><CENTER_NAME>EARTH</CENTER_NAME><REF_FRAME>TEME</REF_FRAME><TIME_SYSTEM>UTC</TIME_SYSTEM><MEAN_ELEMENT_THEORY>SGP4</MEAN_ELEMENT_THEORY></metadata><data><meanElements><EPOCH>2025-10-13T00:43:43.189536</EPOCH><MEAN_MOTION>14.79970938</MEAN_MOTION><ECCENTRICITY>.00055906</ECCENTRICITY><INCLINATION>51.9009</INCLINATION><RA_OF_ASC_NODE>37.0215</RA_OF_ASC_NODE><ARG_OF_PERICENTER>316.7739</ARG_OF_PERICENTER><MEAN_ANOMALY>43.2784</MEAN_ANOMALY></meanElements><tleParameters><EPHEMERIS_TYPE>0</EPHEMERIS_TYPE><CLASSIFICATION_TYPE>U</CLASSIFICATION_TYPE><NORAD_CAT_ID>63736</NORAD_CAT_ID><ELEMENT_SET_NO>999</ELEMENT_SET_NO><REV_AT_EPOCH>2561</REV_AT_EPOCH><BSTAR>.60015951E-3</BSTAR><MEAN_MOTION_DOT>.4361E-4</MEAN_MOTION_DOT><MEAN_MOTION_DDOT>0</MEAN_MOTION_DDOT></tleParameters></data></segment></body></omm>
<omm id="CCSDS_OMM_VERS" version="2.0">
<header><CREATION_DATE/><ORIGINATOR/></header><body><segment><metadata><OBJECT_NAME>KUIPER-00023</OBJECT_NAME><OBJECT_ID>2025-088P</OBJECT_ID><CENTER_NAME>EARTH</CENTER_NAME><REF_FRAME>TEME</REF_FRAME><TIME_SYSTEM>UTC</TIME_SYSTEM><MEAN_ELEMENT_THEORY>SGP4</MEAN_ELEMENT_THEORY></metadata><data><meanElements><EPOCH>2025-10-12T14:58:51.825216</EPOCH><MEAN_MOTION>14.79911894</MEAN_MOTION><ECCENTRICITY>.0011249</ECCENTRICITY><INCLINATION>51.9015</INCLINATION><RA_OF_ASC_NODE>40.2852</RA_OF_ASC_NODE><ARG_OF_PERICENTER>330.3460</ARG_OF_PERICENTER><MEAN_ANOMALY>29.6863</MEAN_ANOMALY></meanElements><tleParameters><EPHEMERIS_TYPE>0</EPHEMERIS_TYPE><CLASSIFICATION_TYPE>U</CLASSIFICATION_TYPE><NORAD_CAT_ID>63737</NORAD_CAT_ID><ELEMENT_SET_NO>999</ELEMENT_SET_NO><REV_AT_EPOCH>2583</REV_AT_EPOCH><BSTAR>.43864597E-3</BSTAR><MEAN_MOTION_DOT>.3123E-4</MEAN_MOTION_DOT><MEAN_MOTION_DDOT>0</MEAN_MOTION_DDOT></tleParameters></data></segment></body></omm>
<omm id="CCSDS_OMM_VERS" version="2.0">
<header><CREATION_DATE/><ORIGINATOR/></header><body><segment><metadata><OBJECT_NAME>KUIPER-00024</OBJECT_NAME><OBJECT_ID>2025-088Q</OBJECT_ID><CENTER_NAME>EARTH</CENTER_NAME><REF_FRAME>TEME</REF_FRAME><TIME_SYSTEM>UTC</TIME_SYSTEM><MEAN_ELEMENT_THEORY>SGP4</MEAN_ELEMENT_THEORY></metadata><data><meanElements><EPOCH>2025-10-13T00:30:17.130240</EPOCH><MEAN_MOTION>14.79271595</MEAN_MOTION><ECCENTRICITY>.00040529</ECCENTRICITY><INCLINATION>51.9030</INCLINATION><RA_OF_ASC_NODE>25.8380</RA_OF_ASC_NODE><ARG_OF_PERICENTER>331.2941</ARG_OF_PERICENTER><MEAN_ANOMALY>28.7798</MEAN_ANOMALY></meanElements><tleParameters><EPHEMERIS_TYPE>0</EPHEMERIS_TYPE><CLASSIFICATION_TYPE>U</CLASSIFICATION_TYPE><NORAD_CAT_ID>63738</NORAD_CAT_ID><ELEMENT_SET_NO>999</ELEMENT_SET_NO><REV_AT_EPOCH>2619</REV_AT_EPOCH><BSTAR>.54349647E-3</BSTAR><MEAN_MOTION_DOT>.3861E-4</MEAN_MOTION_DOT><MEAN_MOTION_DDOT>0</MEAN_MOTION_DDOT></tleParameters></data></segment></body></omm>
<omm id="CCSDS_OMM_VERS" version="2.0">
<header><CREATION_DATE/><ORIGINATOR/></header><body><segment><metadata><OBJECT_NAME>KUIPER-00025</OBJECT_NAME><OBJECT_ID>2025-088R</OBJECT_ID><CENTER_NAME>EARTH</CENTER_NAME><REF_FRAME>TEME</REF_FRAME><TIME_SYSTEM>UTC</TIME_SYSTEM><MEAN_ELEMENT_THEORY>SGP4</MEAN_ELEMENT_THEORY></metadata><data><meanElements><EPOCH>2025-10-13T00:47:32.763840</EPOCH><MEAN_MOTION>14.79905482</MEAN_MOTION><ECCENTRICITY>.00081908</ECCENTRICITY><INCLINATION>51.9016</INCLINATION><RA_OF_ASC_NODE>34.5373</RA_OF_ASC_NODE><ARG_OF_PERICENTER>312.9360</ARG_OF_PERICENTER><MEAN_ANOMALY>47.0914</MEAN_ANOMALY></meanElements><tleParameters><EPHEMERIS_TYPE>0</EPHEMERIS_TYPE><CLASSIFICATION_TYPE>U</CLASSIFICATION_TYPE><NORAD_CAT_ID>63739</NORAD_CAT_ID><ELEMENT_SET_NO>999</ELEMENT_SET_NO><REV_AT_EPOCH>2593</REV_AT_EPOCH><BSTAR>-.48274016E-3</BSTAR><MEAN_MOTION_DOT>-.3901E-4</MEAN_MOTION_DOT><MEAN_MOTION_DDOT>0</MEAN_MOTION_DDOT></tleParameters></data></segment></body></omm>

</ndm>
