KUIPER-00016            
1 63732U 25088J   25286.02222462 -.00001632  00000+0 -18456-3 0  9997
2 63732  51.9041  44.5763 0011316 296.1480  63.8318 14.79914352 25465
KUIPER-00018            
1 63733U 25088K   25285.99690983  .00006971  00000+0  10086-2 0  9999
2 63733  51.9017  33.2465 0012202 325.6133  34.4038 14.76996105 25625
KUIPER-00019            
1 63734U 25088L   25285.56298416  .00057968  00000+0  76661-2 0  9991
2 63734  51.8995  34.1119 0005622 337.1619  22.9092 14.79379516 25571
KUIPER-00020            
1 63735U 25088M   25286.03196378 -.00006294  00000+0 -79796-3 0  9990
2 63735  51.9009  36.0106 0007206 313.0275  47.0083 14.79871582 25799
KUIPER-00021            
1 63736U 25088N   25286.03036099  .00004361  00000+0  60016-3 0  9990
2 63736  51.9009  37.0215 0005590 316.7739  43.2784 14.79970938 25613
KUIPER-00023            
1 63737U 25088P   25285.62421094  .00003123  00000+0  43865-3 0  9996
2 63737  51.9015  40.2852 0011249 330.3460  29.6863 14.79911894 25831
KUIPER-00024            
1 63738U 25088Q   25286.02103160  .00003861  00000+0  54350-3 0  9993
2 63738  51.9030  25.8380 0004052 331.2941  28.7798 14.79271595 26196
KUIPER-00025            
1 63739U 25088R   25286.03301810 -.00003901  00000+0 -48274-3 0  9992
2 63739  51.9016  34.5373 0008190 312.9360  47.0914 14.79905482 25932
